{
  "type": "FeatureCollection",
  "features": [
    {
      "type": "Feature",
      "properties": {
        "norad_id": 66793,
        "name": "STARLINK-36051",
        "group": "last-30-days",
        "lat": 39.25603007214229,
        "lon": -10.151888220457984,
        "alt_km": 331.66049342409406,
        "timestamp": "2025-12-16T03:53:25.816729+00:00",
        "meta_object_name": "STARLINK-36051",
        "meta_object_id": "2025-278C",
        "meta_epoch": "2025-12-15T08:00:01.999872",
        "meta_mean_motion": 15.80189064,
        "meta_eccentricity": 0.0001863,
        "meta_inclination": 43.0001,
        "meta_ra_of_asc_node": 236.188,
        "meta_arg_of_pericenter": 273.0023,
        "meta_mean_anomaly": 162.0111,
        "meta_ephemeris_type": 0,
        "meta_classification_type": "U",
        "meta_norad_cat_id": 66793,
        "meta_element_set_no": 999,
        "meta_rev_at_epoch": 327,
        "meta_bstar": -0.0074966626,
        "meta_mean_motion_dot": -0.01278402,
        "meta_mean_motion_ddot": 0,
        "tle_line1": "1 66793U 25278C   25349.33335648 -.01278402  00000+0 -74967-2 0  9993",
        "tle_line2": "2 66793  43.0001 236.1880 0001863 273.0023 162.0111 15.80189064  3270"
      },
      "geometry": {
        "type": "Point",
        "coordinates": [
          -10.151888220457984,
          39.25603007214229
        ]
      }
    },
    {
      "type": "Feature",
      "properties": {
        "norad_id": 66794,
        "name": "STARLINK-36062",
        "group": "last-30-days",
        "lat": 39.894057370997395,
        "lon": -12.656532014626992,
        "alt_km": 331.19960531852576,
        "timestamp": "2025-12-16T03:53:25.816739+00:00",
        "meta_object_name": "STARLINK-36062",
        "meta_object_id": "2025-278D",
        "meta_epoch": "2025-12-15T08:00:01.999872",
        "meta_mean_motion": 15.80142838,
        "meta_eccentricity": 0.00018001,
        "meta_inclination": 42.9975,
        "meta_ra_of_asc_node": 236.1932,
        "meta_arg_of_pericenter": 283.7554,
        "meta_mean_anomaly": 149.1037,
        "meta_ephemeris_type": 0,
        "meta_classification_type": "U",
        "meta_norad_cat_id": 66794,
        "meta_element_set_no": 999,
        "meta_rev_at_epoch": 337,
        "meta_bstar": -0.0069518745,
        "meta_mean_motion_dot": -0.01193564,
        "meta_mean_motion_ddot": 0,
        "tle_line1": "1 66794U 25278D   25349.33335648 -.01193564  00000+0 -69519-2 0  9996",
        "tle_line2": "2 66794  42.9975 236.1932 0001800 283.7554 149.1037 15.80142838  3377"
      },
      "geometry": {
        "type": "Point",
        "coordinates": [
          -12.656532014626992,
          39.894057370997395
        ]
      }
    },
    {
      "type": "Feature",
      "properties": {
        "norad_id": 66795,
        "name": "STARLINK-36047",
        "group": "last-30-days",
        "lat": 38.476682543557864,
        "lon": -7.4059547330819475,
        "alt_km": 332.08778823227385,
        "timestamp": "2025-12-16T03:53:25.816750+00:00",
        "meta_object_name": "STARLINK-36047",
        "meta_object_id": "2025-278E",
        "meta_epoch": "2025-12-15T08:00:01.999872",
        "meta_mean_motion": 15.80125032,
        "meta_eccentricity": 0.00019555,
        "meta_inclination": 43.0001,
        "meta_ra_of_asc_node": 236.1817,
        "meta_arg_of_pericenter": 279.0155,
        "meta_mean_anomaly": 158.4811,
        "meta_ephemeris_type": 0,
        "meta_classification_type": "U",
        "meta_norad_cat_id": 66795,
        "meta_element_set_no": 999,
        "meta_rev_at_epoch": 327,
        "meta_bstar": -0.0075566845,
        "meta_mean_motion_dot": -0.01284096,
        "meta_mean_motion_ddot": 0,
        "tle_line1": "1 66795U 25278E   25349.33335648 -.01284096  00000+0 -75567-2 0  9998",
        "tle_line2": "2 66795  43.0001 236.1817 0001955 279.0155 158.4811 15.80125032  3277"
      },
      "geometry": {
        "type": "Point",
        "coordinates": [
          -7.4059547330819475,
          38.476682543557864
        ]
      }
    },
    {
      "type": "Feature",
      "properties": {
        "norad_id": 66796,
        "name": "STARLINK-35964",
        "group": "last-30-days",
        "lat": -17.421514776398826,
        "lon": 69.65981166077826,
        "alt_km": 314.67887634966246,
        "timestamp": "2025-12-16T03:53:25.816761+00:00",
        "meta_object_name": "STARLINK-35964",
        "meta_object_id": "2025-278F",
        "meta_epoch": "2025-12-15T08:00:01.999872",
        "meta_mean_motion": 15.89788163,
        "meta_eccentricity": 0.00014656,
        "meta_inclination": 42.9941,
        "meta_ra_of_asc_node": 235.1006,
        "meta_arg_of_pericenter": 267.3553,
        "meta_mean_anomaly": 235.6664,
        "meta_ephemeris_type": 0,
        "meta_classification_type": "U",
        "meta_norad_cat_id": 66796,
        "meta_element_set_no": 999,
        "meta_rev_at_epoch": 321,
        "meta_bstar": -0.0084494917,
        "meta_mean_motion_dot": -0.0222355,
        "meta_mean_motion_ddot": 0,
        "tle_line1": "1 66796U 25278F   25349.33335648 -.02223550  00000+0 -84495-2 0  9998",
        "tle_line2": "2 66796  42.9941 235.1006 0001465 267.3553 235.6664 15.89788163  3213"
      },
      "geometry": {
        "type": "Point",
        "coordinates": [
          69.65981166077826,
          -17.421514776398826
        ]
      }
    },
    {
      "type": "Feature",
      "properties": {
        "norad_id": 66797,
        "name": "STARLINK-36099",
        "group": "last-30-days",
        "lat": 36.73711922002005,
        "lon": -2.1195841923303207,
        "alt_km": 332.6787708830825,
        "timestamp": "2025-12-16T03:53:25.816771+00:00",
        "meta_object_name": "STARLINK-36099",
        "meta_object_id": "2025-278G",
        "meta_epoch": "2025-12-15T08:00:01.999872",
        "meta_mean_motion": 15.79993824,
        "meta_eccentricity": 0.00017705,
        "meta_inclination": 42.9974,
        "meta_ra_of_asc_node": 236.169,
        "meta_arg_of_pericenter": 278.0002,
        "meta_mean_anomaly": 164.4788,
        "meta_ephemeris_type": 0,
        "meta_classification_type": "U",
        "meta_norad_cat_id": 66797,
        "meta_element_set_no": 999,
        "meta_rev_at_epoch": 343,
        "meta_bstar": -0.0077187071,
        "meta_mean_motion_dot": -0.01301146,
        "meta_mean_motion_ddot": 0,
        "tle_line1": "1 66797U 25278G   25349.33335648 -.01301146  00000+0 -77187-2 0  9996",
        "tle_line2": "2 66797  42.9974 236.1690 0001770 278.0002 164.4788 15.79993824  3438"
      },
      "geometry": {
        "type": "Point",
        "coordinates": [
          -2.1195841923303207,
          36.73711922002005
        ]
      }
    },
    {
      "type": "Feature",
      "properties": {
        "norad_id": 66798,
        "name": "STARLINK-36041",
        "group": "last-30-days",
        "lat": 35.880123952722215,
        "lon": 0.18130067231187033,
        "alt_km": 332.8898115075017,
        "timestamp": "2025-12-16T03:53:25.816781+00:00",
        "meta_object_name": "STARLINK-36041",
        "meta_object_id": "2025-278H",
        "meta_epoch": "2025-12-15T08:00:01.999872",
        "meta_mean_motion": 15.79973735,
        "meta_eccentricity": 0.00018362,
        "meta_inclination": 42.9978,
        "meta_ra_of_asc_node": 236.1638,
        "meta_arg_of_pericenter": 278.1033,
        "meta_mean_anomaly": 166.4732,
        "meta_ephemeris_type": 0,
        "meta_classification_type": "U",
        "meta_norad_cat_id": 66798,
        "meta_element_set_no": 999,
        "meta_rev_at_epoch": 321,
        "meta_bstar": -0.007708762,
        "meta_mean_motion_dot": -0.01298656,
        "meta_mean_motion_ddot": 0,
        "tle_line1": "1 66798U 25278H   25349.33335648 -.01298656  00000+0 -77088-2 0  9998",
        "tle_line2": "2 66798  42.9978 236.1638 0001836 278.1033 166.4732 15.79973735  3219"
      },
      "geometry": {
        "type": "Point",
        "coordinates": [
          0.18130067231187033,
          35.880123952722215
        ]
      }
    },
    {
      "type": "Feature",
      "properties": {
        "norad_id": 66799,
        "name": "STARLINK-36044",
        "group": "last-30-days",
        "lat": 34.954691609462714,
        "lon": 2.4906431607034727,
        "alt_km": 333.0376755037987,
        "timestamp": "2025-12-16T03:53:25.816791+00:00",
        "meta_object_name": "STARLINK-36044",
        "meta_object_id": "2025-278J",
        "meta_epoch": "2025-12-15T08:00:01.999872",
        "meta_mean_motion": 15.79945563,
        "meta_eccentricity": 0.00017031,
        "meta_inclination": 42.9974,
        "meta_ra_of_asc_node": 236.1581,
        "meta_arg_of_pericenter": 272.3349,
        "meta_mean_anomaly": 174.4757,
        "meta_ephemeris_type": 0,
        "meta_classification_type": "U",
        "meta_norad_cat_id": 66799,
        "meta_element_set_no": 999,
        "meta_rev_at_epoch": 337,
        "meta_bstar": -0.0078275294,
        "meta_mean_motion_dot": -0.01339268,
        "meta_mean_motion_ddot": 0,
        "tle_line1": "1 66799U 25278J   25349.33335648 -.01339268  00000+0 -78275-2 0  9993",
        "tle_line2": "2 66799  42.9974 236.1581 0001703 272.3349 174.4757 15.79945563  3373"
      },
      "geometry": {
        "type": "Point",
        "coordinates": [
          2.4906431607034727,
          34.954691609462714
        ]
      }
    }
  ]
}